$$SOE
2461302.500000000, A.D. 2026-Sep-19 00:00:00.0000, -8.684569681192112E+07, -5.004429248143615E+08, -8.096551209447786E+07,
2461309.500000000, A.D. 2026-Sep-26 00:00:00.0000, -7.717122870264205E+07, -5.011145525198907E+08, -8.165563316068175E+07,
2461316.500000000, A.D. 2026-Oct-03 00:00:00.0000, -6.746908730508851E+07, -5.016066030434294E+08, -8.231648621351615E+07,
2461323.500000000, A.D. 2026-Oct-10 00:00:00.0000, -5.774263988269348E+07, -5.019180798112783E+08, -8.294769937220976E+07,
2461330.500000000, A.D. 2026-Oct-17 00:00:00.0000, -4.799529327162852E+07, -5.020480444029961E+08, -8.354890839395088E+07,
2461337.500000000, A.D. 2026-Oct-24 00:00:00.0000, -3.823049317945026E+07, -5.019956180560564E+08, -8.411975697591585E+07,
2461344.500000000, A.D. 2026-Oct-31 00:00:00.0000, -2.845172334114594E+07, -5.017599833396257E+08, -8.465989708367309E+07,
2461351.500000000, A.D. 2026-Nov-07 00:00:00.0000, -1.866250419213104E+07, -5.013403859219781E+08, -8.516898933070651E+07,
2461358.500000000, A.D. 2026-Nov-14 00:00:00.0000, -8.866390856182287E+06, -5.007361355425432E+08, -8.564670335455370E+07,
2461365.500000000, A.D. 2026-Nov-21 00:00:00.0000, 9.330277409579860E+05, -4.999466055045239E+08, -8.609271796707293E+07,
2461372.500000000, A.D. 2026-Nov-28 00:00:00.0000, 1.073212763556093E+07, -4.989712336932013E+08, -8.650672123237318E+07,
2461379.500000000, A.D. 2026-Dec-05 00:00:00.0000, 2.052725008883326E+07, -4.978095257738241E+08, -8.688841085741764E+07,
2461386.500000000, A.D. 2026-Dec-12 00:00:00.0000, 3.031470351514980E+07, -4.964610574565389E+08, -8.723749465577033E+07,
2461393.500000000, A.D. 2026-Dec-19 00:00:00.0000, 4.009076518926782E+07, -4.949254758200600E+08, -8.755369091036135E+07,
2461400.500000000, A.D. 2026-Dec-26 00:00:00.0000, 4.985168259091471E+07, -4.932025005597506E+08, -8.783672869255647E+07,
2461407.500000000, A.D. 2027-Jan-02 00:00:00.0000, 5.959367466310493E+07, -4.912919253484668E+08, -8.808634817782462E+07,
2461414.500000000, A.D. 2027-Jan-09 00:00:00.0000, 6.931293310125813E+07, -4.891936192872540E+08, -8.830230096646836E+07,
2461421.500000000, A.D. 2027-Jan-16 00:00:00.0000, 7.900562370823342E+07, -4.869075284341831E+08, -8.848435041135404E+07,
2461428.500000000, A.D. 2027-Jan-23 00:00:00.0000, 8.866788786083251E+07, -4.844336774481559E+08, -8.863227195962328E+07,
2461435.500000000, A.D. 2027-Jan-30 00:00:00.0000, 9.829584427481304E+07, -4.817721713929822E+08, -8.874585352918836E+07,
2461442.500000000, A.D. 2027-Feb-06 00:00:00.0000, 1.078855914920890E+08, -4.789231973594825E+08, -8.882489593095043E+07,
2461449.500000000, A.D. 2027-Feb-13 00:00:00.0000, 1.174332106283426E+08, -4.758870246835860E+08, -8.886921319457808E+07,
2461456.500000000, A.D. 2027-Feb-20 00:00:00.0000, 1.269347660155650E+08, -4.726640045482113E+08, -8.887863264524263E+07,
2461463.500000000, A.D. 2027-Feb-27 00:00:00.0000, 1.363863051345253E+08, -4.692545721785313E+08, -8.885299512144068E+07,
2461470.500000000, A.D. 2027-Mar-06 00:00:00.0000, 1.457838608552213E+08, -4.656592497047447E+08, -8.879215545334107E+07,
2461477.500000000, A.D. 2027-Mar-13 00:00:00.0000, 1.551234543848289E+08, -4.618786476404783E+08, -8.869598288728482E+07,
2461484.500000000, A.D. 2027-Mar-20 00:00:00.0000, 1.644010977929119E+08, -4.579134658087770E+08, -8.856436142077598E+07,
2461491.500000000, A.D. 2027-Mar-27 00:00:00.0000, 1.736127963146633E+08, -4.537644942614172E+08, -8.839719011083701E+07,
2461498.500000000, A.D. 2027-Apr-03 00:00:00.0000, 1.827545506334169E+08, -4.494326142355425E+08, -8.819438337746650E+07,
2461505.500000000, A.D. 2027-Apr-10 00:00:00.0000, 1.918223592017682E+08, -4.449187991200718E+08, -8.795587130489013E+07,
2461512.500000000, A.D. 2027-Apr-17 00:00:00.0000, 2.008122206217657E+08, -4.402241154410133E+08, -8.768159994262490E+07,
2461519.500000000, A.D. 2027-Apr-24 00:00:00.0000, 2.097201361626082E+08, -4.353497239227146E+08, -8.737153161772361E+07,
2461526.500000000, A.D. 2027-May-01 00:00:00.0000, 2.185421127154149E+08, -4.302968805932620E+08, -8.702564528288469E+07,
2461533.500000000, A.D. 2027-May-08 00:00:00.0000, 2.272741664921686E+08, -4.250669371832806E+08, -8.664393686732256E+07,
2461540.500000000, A.D. 2027-May-15 00:00:00.0000, 2.359123259703861E+08, -4.196613398630685E+08, -8.622641941502017E+07,
2461547.500000000, A.D. 2027-May-22 00:00:00.0000, 2.444526325166768E+08, -4.140816289069426E+08, -8.577312307809615E+07,
2461554.500000000, A.D. 2027-May-29 00:00:00.0000, 2.528911420420750E+08, -4.083294407490550E+08, -8.528409539211905E+07,
2461561.500000000, A.D. 2027-Jun-05 00:00:00.0000, 2.612239285715252E+08, -4.024065092954471E+08, -8.475940165775412E+07,
2461568.500000000, A.D. 2027-Jun-12 00:00:00.0000, 2.694470877172703E+08, -3.963146660576125E+08, -8.419912520853730E+07,
2461575.500000000, A.D. 2027-Jun-19 00:00:00.0000, 2.775567397219440E+08, -3.900558400394440E+08, -8.360336760991262E+07,
2461582.500000000, A.D. 2027-Jun-26 00:00:00.0000, 2.855490323474162E+08, -3.836320576356699E+08, -8.297224883555703E+07,
2461589.500000000, A.D. 2027-Jul-03 00:00:00.0000, 2.934201437379215E+08, -3.770454425304435E+08, -8.230590743146054E+07,
2461596.500000000, A.D. 2027-Jul-10 00:00:00.0000, 3.011662852903126E+08, -3.702982155844479E+08, -8.160450066941726E+07,
2461603.500000000, A.D. 2027-Jul-17 00:00:00.0000, 3.087837045633384E+08, -3.633926947463543E+08, -8.086820469533531E+07,
2461610.500000000, A.D. 2027-Jul-24 00:00:00.0000, 3.162686883778245E+08, -3.563312950481905E+08, -8.009721469071065E+07,
2461617.500000000, A.D. 2027-Jul-31 00:00:00.0000, 3.236175665150217E+08, -3.491165284461644E+08, -7.929174506474526E+07,
2461624.500000000, A.D. 2027-Aug-07 00:00:00.0000, 3.308267158083952E+08, -3.417510023533298E+08, -7.845202956378984E+07,
2461631.500000000, A.D. 2027-Aug-14 00:00:00.0000, 3.378925623228285E+08, -3.342374171161057E+08, -7.757832110698539E+07,
2461638.500000000, A.D. 2027-Aug-21 00:00:00.0000, 3.448115822333723E+08, -3.265785657963482E+08, -7.667089167874536E+07,
2461645.500000000, A.D. 2027-Aug-28 00:00:00.0000, 3.515803048291432E+08, -3.187773350525756E+08, -7.573003249359621E+07,
2461652.500000000, A.D. 2027-Sep-04 00:00:00.0000, 3.581953164568644E+08, -3.108367046161559E+08, -7.475605412023605E+07,
2461659.500000000, A.D. 2027-Sep-11 00:00:00.0000, 3.646532640042198E+08, -3.027597460229682E+08, -7.374928649084245E+07,
2461666.500000000, A.D. 2027-Sep-18 00:00:00.0000, 3.709508580512086E+08, -2.945496212501799E+08, -7.271007886099344E+07,
2461673.500000000, A.D. 2027-Sep-25 00:00:00.0000, 3.770848759130672E+08, -2.862095813353773E+08, -7.163879974757402E+07,
2461680.500000000, A.D. 2027-Oct-02 00:00:00.0000, 3.830521646442898E+08, -2.777429649503273E+08, -7.053583684932753E+07,
2461687.500000000, A.D. 2027-Oct-09 00:00:00.0000, 3.888496440203699E+08, -2.691531969339281E+08, -6.940159695246199E+07,
2461694.500000000, A.D. 2027-Oct-16 00:00:00.0000, 3.944743095541698E+08, -2.604437868392787E+08, -6.823650583147299E+07,
2461701.500000000, A.D. 2027-Oct-23 00:00:00.0000, 3.999232358004066E+08, -2.516183275002822E+08, -6.704100816928427E+07,
2461708.500000000, A.D. 2027-Oct-30 00:00:00.0000, 4.051935803174838E+08, -2.426804930072693E+08, -6.581556748110451E+07,
2461715.500000000, A.D. 2027-Nov-06 00:00:00.0000, 4.102825871189123E+08, -2.336340349648384E+08, -6.456066584328276E+07,
2461722.500000000, A.D. 2027-Nov-13 00:00:00.0000, 4.151875876237267E+08, -2.244827791109142E+08, -6.327680341493425E+07,
2461729.500000000, A.D. 2027-Nov-20 00:00:00.0000, 4.199060020008384E+08, -2.152306244848633E+08, -6.196449819697085E+07,
2461736.500000000, A.D. 2027-Nov-27 00:00:00.0000, 4.244353425185256E+08, -2.058815421816747E+08, -6.062428593447915E+07,
2461743.500000000, A.D. 2027-Dec-04 00:00:00.0000, 4.287732168700452E+08, -1.964395727809852E+08, -5.925671990221877E+07,
2461750.500000000, A.D. 2027-Dec-11 00:00:00.0000, 4.329173309187722E+08, -1.869088234183514E+08, -5.786237060153456E+07,
2461757.500000000, A.D. 2027-Dec-18 00:00:00.0000, 4.368654911311052E+08, -1.772934648410858E+08, -5.644182542150262E+07,
2461764.500000000, A.D. 2027-Dec-25 00:00:00.0000, 4.406156068423997E+08, -1.675977284535139E+08, -5.499568827833520E+07,
2461771.500000000, A.D. 2028-Jan-01 00:00:00.0000, 4.441656923915467E+08, -1.578259033395476E+08, -5.352457923576514E+07,
$$EOE